{
    "links": {
        "self": "http://www.neowsapp.com/rest/v1/neo/3261400?api_key=iIulBulltgU6a56xZRHN4H3l9WmuAYTsLGpBGhQ2"
    },
    "id": "3261400",
    "neo_reference_id": "3261400",
    "name": "(2004 VW)",
    "designation": "2004 VW",
    "nasa_jpl_url": "http://ssd.jpl.nasa.gov/sbdb.cgi?sstr=3261400",
    "absolute_magnitude_h": 23.1,
    "estimated_diameter": {
        "kilometers": {
            "estimated_diameter_min": 0.063760979,
            "estimated_diameter_max": 0.1425738833
        },
        "meters": {
            "estimated_diameter_min": 63.7609789875,
            "estimated_diameter_max": 142.5738833281
        },
        "miles": {
            "estimated_diameter_min": 0.0396192233,
            "estimated_diameter_max": 0.0885912765
        },
        "feet": {
            "estimated_diameter_min": 209.1895703015,
            "estimated_diameter_max": 467.7620993781
        }
    },
    "is_potentially_hazardous_asteroid": false,
    "close_approach_data": [
        {
            "close_approach_date": "1935-04-15",
            "close_approach_date_full": "1935-Apr-15 07:14",
            "epoch_date_close_approach": -1095525960000,
            "relative_velocity": {
                "kilometers_per_second": "15.7413970084",
                "kilometers_per_hour": "56669.0292300946",
                "miles_per_hour": "35211.9309679996"
            },
            "miss_distance": {
                "astronomical": "0.0864464174",
                "lunar": "33.6276563686",
                "kilometers": "12932199.912170938",
                "miles": "8035696.4052294244"
            },
            "orbiting_body": "Earth"
        },
        {
            "close_approach_date": "2003-04-21",
            "close_approach_date_full": "2003-Apr-21 00:40",
            "epoch_date_close_approach": 1050885600000,
            "relative_velocity": {
                "kilometers_per_second": "18.6157209135",
                "kilometers_per_hour": "67016.595288622",
                "miles_per_hour": "41641.5061114218"
            },
            "miss_distance": {
                "astronomical": "0.144759472",
                "lunar": "56.311434608",
                "kilometers": "21655708.67352464",
                "miles": "13456233.395894432"
            },
            "orbiting_body": "Earth"
        },
        {
            "close_approach_date": "2004-11-09",
            "close_approach_date_full": "2004-Nov-09 06:40",
            "epoch_date_close_approach": 1099982400000,
            "relative_velocity": {
                "kilometers_per_second": "14.35334078",
                "kilometers_per_hour": "51672.0268081102",
                "miles_per_hour": "32106.9879908504"
            },
            "miss_distance": {
                "astronomical": "0.0417690913",
                "lunar": "16.2481765157",
                "kilometers": "6248567.090315531",
                "miles": "3882679.5476790878"
            },
            "orbiting_body": "Earth"
        },
        {
            "close_approach_date": "2184-04-18",
            "close_approach_date_full": "2184-Apr-18 20:12",
            "epoch_date_close_approach": 6762600720000,
            "relative_velocity": {
                "kilometers_per_second": "16.8570467125",
                "kilometers_per_hour": "60685.3681650364",
                "miles_per_hour": "37707.5277912138"
            },
            "miss_distance": {
                "astronomical": "0.091721116",
                "lunar": "35.679514124",
                "kilometers": "13721283.58762292",
                "miles": "8526010.264999496"
            },
            "orbiting_body": "Earth"
        }
    ],
    "orbital_data": {
        "orbit_id": "7",
        "orbit_determination_date": "2017-04-06 09:11:55",
        "first_observation_date": "2004-11-04",
        "last_observation_date": "2004-11-06",
        "data_arc_in_days": 2,
        "observations_used": 30,
        "orbit_uncertainty": "8",
        "minimum_orbit_intersection": ".00259338",
        "jupiter_tisserand_invariant": "4.366",
        "epoch_osculation": "2453314.5",
        "eccentricity": ".5141827525577877",
        "semi_major_axis": "1.500741895799026",
        "inclination": "12.69109230010143",
        "ascending_node_longitude": "223.7255923376051",
        "orbital_period": "671.5176577472265",
        "perihelion_distance": ".72908629693829",
        "perihelion_argument": "257.9639165579171",
        "aphelion_distance": "2.272397494659761",
        "perihelion_time": "2453368.028712682310",
        "mean_anomaly": "331.3033062596168",
        "mean_motion": ".5360990822009205",
        "equinox": "J2000",
        "orbit_class": {
            "orbit_class_type": "APO",
            "orbit_class_description": "Near-Earth asteroid orbits which cross the Earth’s orbit similar to that of 1862 Apollo",
            "orbit_class_range": "a (semi-major axis) > 1.0 AU; q (perihelion) < 1.017 AU"
        }
    },
    "is_sentry_object": false
}